[{"OBJECT_NAME":"STARLINK-4076","OBJECT_ID":"2022-053M","EPOCH":"2026-03-09T12:36:54.324864","MEAN_MOTION":15.08834598,"ECCENTRICITY":0.00014802,"INCLINATION":53.2178,"RA_OF_ASC_NODE":154.8591,"ARG_OF_PERICENTER":98.2292,"MEAN_ANOMALY":261.8868,"EPHEMERIS_TYPE":0,"CLASSIFICATION_TYPE":"U","NORAD_CAT_ID":52667,"ELEMENT_SET_NO":999,"REV_AT_EPOCH":21102,"BSTAR":5.0402057e-5,"MEAN_MOTION_DOT":5.14e-6,"MEAN_MOTION_DDOT":0},{"OBJECT_NAME":"FENGYUN 1C DEB","OBJECT_ID":"1999-025BTY","EPOCH":"2026-03-09T14:49:03.533664","MEAN_MOTION":15.05418076,"ECCENTRICITY":0.0035944,"INCLINATION":98.8793,"RA_OF_ASC_NODE":298.6402,"ARG_OF_PERICENTER":319.4464,"MEAN_ANOMALY":105.3063,"EPHEMERIS_TYPE":0,"CLASSIFICATION_TYPE":"U","NORAD_CAT_ID":31436,"ELEMENT_SET_NO":999,"REV_AT_EPOCH":98178,"BSTAR":0.0045436,"MEAN_MOTION_DOT":0.00066638,"MEAN_MOTION_DDOT":0}]
